[{"OBJECT_NAME":"KSM1-C","OBJECT_ID":"2020-081B","EPOCH":"2026-03-09T23:03:28.272960","MEAN_MOTION":15.249265,"ECCENTRICITY":8.294e-5,"INCLINATION":36.8937,"RA_OF_ASC_NODE":310.7323,"ARG_OF_PERICENTER":75.7221,"MEAN_ANOMALY":284.362,"EPHEMERIS_TYPE":0,"CLASSIFICATION_TYPE":"U","NORAD_CAT_ID":46906,"ELEMENT_SET_NO":999,"REV_AT_EPOCH":29400,"BSTAR":0.00049583858,"MEAN_MOTION_DOT":0.0001256,"MEAN_MOTION_DDOT":0},{"OBJECT_NAME":"STARLINK-30532","OBJECT_ID":"2023-158V","EPOCH":"2026-03-09T06:07:37.137216","MEAN_MOTION":15.26732748,"ECCENTRICITY":7.652e-5,"INCLINATION":43.0022,"RA_OF_ASC_NODE":29.483,"ARG_OF_PERICENTER":276.0895,"MEAN_ANOMALY":83.9869,"EPHEMERIS_TYPE":0,"CLASSIFICATION_TYPE":"U","NORAD_CAT_ID":58070,"ELEMENT_SET_NO":999,"REV_AT_EPOCH":13350,"BSTAR":0.00015373229,"MEAN_MOTION_DOT":3.865e-5,"MEAN_MOTION_DDOT":0}]
